[{"OBJECT_NAME":"STARLINK-1154","OBJECT_ID":"2020-012W","EPOCH":"2026-03-09T02:30:04.608000","MEAN_MOTION":15.45952497,"ECCENTRICITY":0.00072447,"INCLINATION":53.0499,"RA_OF_ASC_NODE":12.8007,"ARG_OF_PERICENTER":86.205,"MEAN_ANOMALY":273.9784,"EPHEMERIS_TYPE":0,"CLASSIFICATION_TYPE":"U","NORAD_CAT_ID":45198,"ELEMENT_SET_NO":999,"REV_AT_EPOCH":33520,"BSTAR":0.0019057073,"MEAN_MOTION_DOT":0.00095128,"MEAN_MOTION_DDOT":0},{"OBJECT_NAME":"STARLINK-1321","OBJECT_ID":"2020-025AU","EPOCH":"2026-03-09T22:50:56.097888","MEAN_MOTION":15.48328666,"ECCENTRICITY":0.00039179,"INCLINATION":53.0512,"RA_OF_ASC_NODE":57.2281,"ARG_OF_PERICENTER":62.1333,"MEAN_ANOMALY":298.0071,"EPHEMERIS_TYPE":0,"CLASSIFICATION_TYPE":"U","NORAD_CAT_ID":45573,"ELEMENT_SET_NO":999,"REV_AT_EPOCH":32550,"BSTAR":0.0012717452,"MEAN_MOTION_DOT":0.00068518,"MEAN_MOTION_DDOT":0}]
